YAOGAN-30 06C           
1 44451U 19045C   26068.85043463  .00004352  00000+0  32596-3 0  9993
2 44451  34.9925 214.7382 0001081 261.6749  98.3837 15.02172666361604
STARLINK-5711           
1 55471U 23015Y   26067.13871294 -.00002481  00000+0 -16881-3 0  9992
2 55471  43.0038 334.1590 0001582 247.6794 112.3881 15.02506612170529
